CCSDS_OMM_VERS = 2.0
CREATION_DATE  = 
ORIGINATOR     = 

OBJECT_NAME    = STARLINK-36828
OBJECT_ID      = 2026-034H
CENTER_NAME    = EARTH
REF_FRAME      = TEME
TIME_SYSTEM    = UTC
MEAN_ELEMENT_THEORY = SGP/SGP4

EPOCH          = 2026-03-17T06:00:21.302784
MEAN_MOTION    = 15.80952679
ECCENTRICITY   = .00013832
INCLINATION    = 53.1589
RA_OF_ASC_NODE = 173.4126
ARG_OF_PERICENTER = 83.7939
MEAN_ANOMALY   = 276.3241

EPHEMERIS_TYPE = 0
CLASSIFICATION_TYPE = U
NORAD_CAT_ID   = 67857
ELEMENT_SET_NO = 999
REV_AT_EPOCH   = 513
BSTAR          = .1509918E-2
MEAN_MOTION_DOT = .309368E-2
MEAN_MOTION_DDOT = 0

CCSDS_OMM_VERS = 2.0
CREATION_DATE  = 
ORIGINATOR     = 

OBJECT_NAME    = STARLINK-36837
OBJECT_ID      = 2026-034J
CENTER_NAME    = EARTH
REF_FRAME      = TEME
TIME_SYSTEM    = UTC
MEAN_ELEMENT_THEORY = SGP/SGP4

EPOCH          = 2026-03-17T05:58:11.746848
MEAN_MOTION    = 15.81062855
ECCENTRICITY   = .00015096
INCLINATION    = 53.1582
RA_OF_ASC_NODE = 173.4035
ARG_OF_PERICENTER = 62.9836
MEAN_ANOMALY   = 297.1341

EPHEMERIS_TYPE = 0
CLASSIFICATION_TYPE = U
NORAD_CAT_ID   = 67858
ELEMENT_SET_NO = 999
REV_AT_EPOCH   = 513
BSTAR          = .14071718E-2
MEAN_MOTION_DOT = .289047E-2
MEAN_MOTION_DDOT = 0

CCSDS_OMM_VERS = 2.0
CREATION_DATE  = 
ORIGINATOR     = 

OBJECT_NAME    = STARLINK-36393
OBJECT_ID      = 2026-034K
CENTER_NAME    = EARTH
REF_FRAME      = TEME
TIME_SYSTEM    = UTC
MEAN_ELEMENT_THEORY = SGP/SGP4

EPOCH          = 2026-03-17T05:57:06.809472
MEAN_MOTION    = 15.80987389
ECCENTRICITY   = .00017543
INCLINATION    = 53.1585
RA_OF_ASC_NODE = 173.3977
ARG_OF_PERICENTER = 108.8386
MEAN_ANOMALY   = 251.2828

EPHEMERIS_TYPE = 0
CLASSIFICATION_TYPE = U
NORAD_CAT_ID   = 67859
ELEMENT_SET_NO = 999
REV_AT_EPOCH   = 513
BSTAR          = .22525949E-2
MEAN_MOTION_DOT = .471509E-2
MEAN_MOTION_DDOT = 0

CCSDS_OMM_VERS = 2.0
CREATION_DATE  = 
ORIGINATOR     = 

OBJECT_NAME    = STARLINK-35873
OBJECT_ID      = 2026-034L
CENTER_NAME    = EARTH
REF_FRAME      = TEME
TIME_SYSTEM    = UTC
MEAN_ELEMENT_THEORY = SGP/SGP4

EPOCH          = 2026-03-16T23:51:53.758944
MEAN_MOTION    = 15.80955738
ECCENTRICITY   = .00016836
INCLINATION    = 53.1595
RA_OF_ASC_NODE = 174.6594
ARG_OF_PERICENTER = 101.2504
MEAN_ANOMALY   = 258.8708

EPHEMERIS_TYPE = 0
CLASSIFICATION_TYPE = U
NORAD_CAT_ID   = 67860
ELEMENT_SET_NO = 999
REV_AT_EPOCH   = 512
BSTAR          = .14348462E-2
MEAN_MOTION_DOT = .293444E-2
MEAN_MOTION_DDOT = 0

CCSDS_OMM_VERS = 2.0
CREATION_DATE  = 
ORIGINATOR     = 

OBJECT_NAME    = STARLINK-36325
OBJECT_ID      = 2026-034M
CENTER_NAME    = EARTH
REF_FRAME      = TEME
TIME_SYSTEM    = UTC
MEAN_ELEMENT_THEORY = SGP/SGP4

EPOCH          = 2026-03-16T23:50:48.630624
MEAN_MOTION    = 15.80949258
ECCENTRICITY   = .00011988
INCLINATION    = 53.1591
RA_OF_ASC_NODE = 174.6551
ARG_OF_PERICENTER = 76.7670
MEAN_ANOMALY   = 283.3487

EPHEMERIS_TYPE = 0
CLASSIFICATION_TYPE = U
NORAD_CAT_ID   = 67861
ELEMENT_SET_NO = 999
REV_AT_EPOCH   = 509
BSTAR          = .12472556E-2
MEAN_MOTION_DOT = .253728E-2
MEAN_MOTION_DDOT = 0

CCSDS_OMM_VERS = 2.0
CREATION_DATE  = 
ORIGINATOR     = 

OBJECT_NAME    = STARLINK-36332
OBJECT_ID      = 2026-034N
CENTER_NAME    = EARTH
REF_FRAME      = TEME
TIME_SYSTEM    = UTC
MEAN_ELEMENT_THEORY = SGP/SGP4

EPOCH          = 2026-03-16T23:49:43.880736
MEAN_MOTION    = 15.80954058
ECCENTRICITY   = .00012015
INCLINATION    = 53.1593
RA_OF_ASC_NODE = 174.6499
ARG_OF_PERICENTER = 48.8998
MEAN_ANOMALY   = 311.2129

EPHEMERIS_TYPE = 0
CLASSIFICATION_TYPE = U
NORAD_CAT_ID   = 67862
ELEMENT_SET_NO = 999
REV_AT_EPOCH   = 509
BSTAR          = .13380264E-2
MEAN_MOTION_DOT = .272918E-2
MEAN_MOTION_DDOT = 0

CCSDS_OMM_VERS = 2.0
CREATION_DATE  = 
ORIGINATOR     = 

OBJECT_NAME    = STARLINK-36835
OBJECT_ID      = 2026-034P
CENTER_NAME    = EARTH
REF_FRAME      = TEME
TIME_SYSTEM    = UTC
MEAN_ELEMENT_THEORY = SGP/SGP4

EPOCH          = 2026-03-16T23:48:39.126528
MEAN_MOTION    = 15.80949793
ECCENTRICITY   = .00014684
INCLINATION    = 53.1598
RA_OF_ASC_NODE = 174.6444
ARG_OF_PERICENTER = 54.0648
MEAN_ANOMALY   = 306.0511

EPHEMERIS_TYPE = 0
CLASSIFICATION_TYPE = U
NORAD_CAT_ID   = 67863
ELEMENT_SET_NO = 999
REV_AT_EPOCH   = 509
BSTAR          = .13364693E-2
MEAN_MOTION_DOT = .272533E-2
MEAN_MOTION_DDOT = 0

CCSDS_OMM_VERS = 2.0
CREATION_DATE  = 
ORIGINATOR     = 

OBJECT_NAME    = STARLINK-36831
OBJECT_ID      = 2026-034Q
CENTER_NAME    = EARTH
REF_FRAME      = TEME
TIME_SYSTEM    = UTC
MEAN_ELEMENT_THEORY = SGP/SGP4

EPOCH          = 2026-03-17T05:51:42.742944
MEAN_MOTION    = 15.80974376
ECCENTRICITY   = .00010981
INCLINATION    = 53.1584
RA_OF_ASC_NODE = 173.3724
ARG_OF_PERICENTER = 80.5978
MEAN_ANOMALY   = 279.5169

EPHEMERIS_TYPE = 0
CLASSIFICATION_TYPE = U
NORAD_CAT_ID   = 67864
ELEMENT_SET_NO = 999
REV_AT_EPOCH   = 513
BSTAR          = .22905492E-2
MEAN_MOTION_DOT = .479664E-2
MEAN_MOTION_DDOT = 0

CCSDS_OMM_VERS = 2.0
CREATION_DATE  = 
ORIGINATOR     = 

OBJECT_NAME    = STARLINK-36738
OBJECT_ID      = 2026-034R
CENTER_NAME    = EARTH
REF_FRAME      = TEME
TIME_SYSTEM    = UTC
MEAN_ELEMENT_THEORY = SGP/SGP4

EPOCH          = 2026-03-16T23:46:31.146528
MEAN_MOTION    = 15.80975601
ECCENTRICITY   = .00053082
INCLINATION    = 53.1586
RA_OF_ASC_NODE = 174.6343
ARG_OF_PERICENTER = 72.8246
MEAN_ANOMALY   = 287.3357

EPHEMERIS_TYPE = 0
CLASSIFICATION_TYPE = U
NORAD_CAT_ID   = 67865
ELEMENT_SET_NO = 999
REV_AT_EPOCH   = 509
BSTAR          = .21860024E-2
MEAN_MOTION_DOT = .456639E-2
MEAN_MOTION_DDOT = 0

CCSDS_OMM_VERS = 2.0
CREATION_DATE  = 
ORIGINATOR     = 

OBJECT_NAME    = STARLINK-36780
OBJECT_ID      = 2026-034S
CENTER_NAME    = EARTH
REF_FRAME      = TEME
TIME_SYSTEM    = UTC
MEAN_ELEMENT_THEORY = SGP/SGP4

EPOCH          = 2026-03-16T23:45:25.819488
MEAN_MOTION    = 15.80939615
ECCENTRICITY   = .00039097
INCLINATION    = 53.1586
RA_OF_ASC_NODE = 174.6283
ARG_OF_PERICENTER = 78.4570
MEAN_ANOMALY   = 281.6892

EPHEMERIS_TYPE = 0
CLASSIFICATION_TYPE = U
NORAD_CAT_ID   = 67866
ELEMENT_SET_NO = 999
REV_AT_EPOCH   = 509
BSTAR          = .15805341E-2
MEAN_MOTION_DOT = .324297E-2
MEAN_MOTION_DDOT = 0

CCSDS_OMM_VERS = 2.0
CREATION_DATE  = 
ORIGINATOR     = 

OBJECT_NAME    = STARLINK-36761
OBJECT_ID      = 2026-034T
CENTER_NAME    = EARTH
REF_FRAME      = TEME
TIME_SYSTEM    = UTC
MEAN_ELEMENT_THEORY = SGP/SGP4

EPOCH          = 2026-03-16T23:44:20.952960
MEAN_MOTION    = 15.80988110
ECCENTRICITY   = .00041057
INCLINATION    = 53.1593
RA_OF_ASC_NODE = 174.6230
ARG_OF_PERICENTER = 67.8576
MEAN_ANOMALY   = 292.2883

EPHEMERIS_TYPE = 0
CLASSIFICATION_TYPE = U
NORAD_CAT_ID   = 67867
ELEMENT_SET_NO = 999
REV_AT_EPOCH   = 509
BSTAR          = .20007146E-2
MEAN_MOTION_DOT = .416052E-2
MEAN_MOTION_DDOT = 0

CCSDS_OMM_VERS = 2.0
CREATION_DATE  = 
ORIGINATOR     = 

OBJECT_NAME    = STARLINK-36762
OBJECT_ID      = 2026-034U
CENTER_NAME    = EARTH
REF_FRAME      = TEME
TIME_SYSTEM    = UTC
MEAN_ELEMENT_THEORY = SGP/SGP4

EPOCH          = 2026-03-16T23:43:15.523104
MEAN_MOTION    = 15.80993779
ECCENTRICITY   = .00025127
INCLINATION    = 53.1594
RA_OF_ASC_NODE = 174.6183
ARG_OF_PERICENTER = 78.0419
MEAN_ANOMALY   = 282.0886

EPHEMERIS_TYPE = 0
CLASSIFICATION_TYPE = U
NORAD_CAT_ID   = 67868
ELEMENT_SET_NO = 999
REV_AT_EPOCH   = 509
BSTAR          = .19849553E-2
MEAN_MOTION_DOT = .412658E-2
MEAN_MOTION_DDOT = 0

